[
    {
        "Altitude(m)": 703239.5292597073,
        "Argument of Periapsis(deg)": 0.0022780242373254137,
        "Eccentricity": 0.0,
        "Inclination(deg)": 45.0,
        "Latitude(deg)": 1.5812319305519538,
        "Longitude(deg)": 166.44310172364874,
        "Mean Anomaly(deg)": 2.306643329496195,
        "RAAN(deg)": 264.9978496117084,
        "Satellite Name": "Constellation 1 1166",
        "Satellite Number": 1166,
        "Semi-Major Axis(m)": 7083131.272910544,
        "Time(s)": 38
    },
    {
        "Altitude(m)": 703234.6929060502,
        "Argument of Periapsis(deg)": 0.002337972243570819,
        "Eccentricity": 0.0,
        "Inclination(deg)": 45.0,
        "Latitude(deg)": 1.6244330754891365,
        "Longitude(deg)": 166.48188648329668,
        "Mean Anomaly(deg)": 2.3673444697460817,
        "RAAN(deg)": 264.9977930225428,
        "Satellite Name": "Constellation 1 1166",
        "Satellite Number": 1166,
        "Semi-Major Axis(m)": 7083131.272910544,
        "Time(s)": 39
    },
    {
        "Altitude(m)": 703229.8773826658,
        "Argument of Periapsis(deg)": 0.0023979202498162246,
        "Eccentricity": 0.0,
        "Inclination(deg)": 45.0,
        "Latitude(deg)": 1.667633350814726,
        "Longitude(deg)": 166.5206731278936,
        "Mean Anomaly(deg)": 2.428045609995968,
        "RAAN(deg)": 264.9977364333772,
        "Satellite Name": "Constellation 1 1166",
        "Satellite Number": 1166,
        "Semi-Major Axis(m)": 7083131.272910544,
        "Time(s)": 40
    },
    {
        "Altitude(m)": 703225.0826923852,
        "Argument of Periapsis(deg)": 0.00245786825606163,
        "Eccentricity": 0.0,
        "Inclination(deg)": 45.0,
        "Latitude(deg)": 1.7108327315142904,
        "Longitude(deg)": 166.55946170583067,
        "Mean Anomaly(deg)": 2.4887467502458547,
        "RAAN(deg)": 264.99767984421163,
        "Satellite Name": "Constellation 1 1166",
        "Satellite Number": 1166,
        "Semi-Major Axis(m)": 7083131.272910544,
        "Time(s)": 41
    },
    {
        "Altitude(m)": 703220.3088379432,
        "Argument of Periapsis(deg)": 0.002517816262307036,
        "Eccentricity": 0.0,
        "Inclination(deg)": 45.0,
        "Latitude(deg)": 1.7540311925695746,
        "Longitude(deg)": 166.59825226550362,
        "Mean Anomaly(deg)": 2.549447890495792,
        "RAAN(deg)": 264.9976232550461,
        "Satellite Name": "Constellation 1 1166",
        "Satellite Number": 1166,
        "Semi-Major Axis(m)": 7083131.272910544,
        "Time(s)": 42
    },
    {
        "Altitude(m)": 703215.555821998,
        "Argument of Periapsis(deg)": 0.0025777642685524413,
        "Eccentricity": 0.0,
        "Inclination(deg)": 45.0,
        "Latitude(deg)": 1.7972287089584038,
        "Longitude(deg)": 166.63704485531264,
        "Mean Anomaly(deg)": 2.6101490307456783,
        "RAAN(deg)": 264.9975666658805,
        "Satellite Name": "Constellation 1 1166",
        "Satellite Number": 1166,
        "Semi-Major Axis(m)": 7083131.272910544,
        "Time(s)": 43
    },
    {
        "Altitude(m)": 703210.82364709,
        "Argument of Periapsis(deg)": 0.002637712274797847,
        "Eccentricity": 0.0,
        "Inclination(deg)": 45.0,
        "Latitude(deg)": 1.840425255654898,
        "Longitude(deg)": 166.6758393555658,
        "Mean Anomaly(deg)": 2.670850170995565,
        "RAAN(deg)": 264.99751007671495,
        "Satellite Name": "Constellation 1 1166",
        "Satellite Number": 1166,
        "Semi-Major Axis(m)": 7083131.272910544,
        "Time(s)": 44
    },
    {
        "Altitude(m)": 703206.1123156853,
        "Argument of Periapsis(deg)": 0.0026976602810432526,
        "Eccentricity": 0.0,
        "Inclination(deg)": 45.0,
        "Latitude(deg)": 1.8836208076281944,
        "Longitude(deg)": 166.71463615086722,
        "Mean Anomaly(deg)": 2.7315513112454513,
        "RAAN(deg)": 264.99745348754936,
        "Satellite Name": "Constellation 1 1166",
        "Satellite Number": 1166,
        "Semi-Major Axis(m)": 7083131.272910544,
        "Time(s)": 45
    },
    {
        "Altitude(m)": 703201.4218301453,
        "Argument of Periapsis(deg)": 0.0027576082872886585,
        "Eccentricity": 0.0,
        "Inclination(deg)": 45.0,
        "Latitude(deg)": 1.9268153398441301,
        "Longitude(deg)": 166.75343512153466,
        "Mean Anomaly(deg)": 2.792252451495389,
        "RAAN(deg)": 264.9973968983838,
        "Satellite Name": "Constellation 1 1166",
        "Satellite Number": 1166,
        "Semi-Major Axis(m)": 7083131.272910544,
        "Time(s)": 46
    },
    {
        "Altitude(m)": 703196.7521927429,
        "Argument of Periapsis(deg)": 0.0028175562935340644,
        "Eccentricity": 0.0,
        "Inclination(deg)": 45.0,
        "Latitude(deg)": 1.9700088272639618,
        "Longitude(deg)": 166.79223631598825,
        "Mean Anomaly(deg)": 2.8529535917452753,
        "RAAN(deg)": 264.99734030921826,
        "Satellite Name": "Constellation 1 1166",
        "Satellite Number": 1166,
        "Semi-Major Axis(m)": 7083131.272910544,
        "Time(s)": 47
    },
    {
        "Altitude(m)": 703192.1034056596,
        "Argument of Periapsis(deg)": 0.00287750429977947,
        "Eccentricity": 0.0,
        "Inclination(deg)": 45.0,
        "Latitude(deg)": 2.013201244844579,
        "Longitude(deg)": 166.83103978265325,
        "Mean Anomaly(deg)": 2.913654731995162,
        "RAAN(deg)": 264.9972837200527,
        "Satellite Name": "Constellation 1 1166",
        "Satellite Number": 1166,
        "Semi-Major Axis(m)": 7083131.272910544,
        "Time(s)": 48
    },
    {
        "Altitude(m)": 703187.4754709741,
        "Argument of Periapsis(deg)": 0.002937452306024875,
        "Eccentricity": 0.0,
        "Inclination(deg)": 45.0,
        "Latitude(deg)": 2.0563925675384156,
        "Longitude(deg)": 166.86984556996023,
        "Mean Anomaly(deg)": 2.974355872245099,
        "RAAN(deg)": 264.9972271308871,
        "Satellite Name": "Constellation 1 1166",
        "Satellite Number": 1166,
        "Semi-Major Axis(m)": 7083131.272910544,
        "Time(s)": 49
    },
    {
        "Altitude(m)": 703182.8683906824,
        "Argument of Periapsis(deg)": 0.0029974003122702807,
        "Eccentricity": 0.0,
        "Inclination(deg)": 45.0,
        "Latitude(deg)": 2.099582770293341,
        "Longitude(deg)": 166.9086537263451,
        "Mean Anomaly(deg)": 3.0350570124949856,
        "RAAN(deg)": 264.9971705417215,
        "Satellite Name": "Constellation 1 1166",
        "Satellite Number": 1166,
        "Semi-Major Axis(m)": 7083131.272910544,
        "Time(s)": 50
    },
    {
        "Altitude(m)": 703178.2821666757,
        "Argument of Periapsis(deg)": 0.0030573483185156866,
        "Eccentricity": 0.0,
        "Inclination(deg)": 45.0,
        "Latitude(deg)": 2.1427718280525583,
        "Longitude(deg)": 166.94746430024927,
        "Mean Anomaly(deg)": 3.0957581527448212,
        "RAAN(deg)": 264.99711395255594,
        "Satellite Name": "Constellation 1 1166",
        "Satellite Number": 1166,
        "Semi-Major Axis(m)": 7083131.272910544,
        "Time(s)": 51
    },
    {
        "Altitude(m)": 703173.7168007642,
        "Argument of Periapsis(deg)": 0.003117296324761092,
        "Eccentricity": 0.0,
        "Inclination(deg)": 45.0,
        "Latitude(deg)": 2.1859597157549273,
        "Longitude(deg)": 166.9862771720231,
        "Mean Anomaly(deg)": 3.1564592929947075,
        "RAAN(deg)": 264.9970573633904,
        "Satellite Name": "Constellation 1 1166",
        "Satellite Number": 1166,
        "Semi-Major Axis(m)": 7083131.272910544,
        "Time(s)": 52
    },
    {
        "Altitude(m)": 703169.172294655,
        "Argument of Periapsis(deg)": 0.0031772443310064975,
        "Eccentricity": 0.0,
        "Inclination(deg)": 45.0,
        "Latitude(deg)": 2.229146408333501,
        "Longitude(deg)": 167.02509272631335,
        "Mean Anomaly(deg)": 3.217160433244645,
        "RAAN(deg)": 264.99700077422483,
        "Satellite Name": "Constellation 1 1166",
        "Satellite Number": 1166,
        "Semi-Major Axis(m)": 7083131.272910544,
        "Time(s)": 53
    },
    {
        "Altitude(m)": 703164.6486499619,
        "Argument of Periapsis(deg)": 0.0032371923372519038,
        "Eccentricity": 0.0,
        "Inclination(deg)": 45.0,
        "Latitude(deg)": 2.2723318807173225,
        "Longitude(deg)": 167.0639108434817,
        "Mean Anomaly(deg)": 3.277861573494531,
        "RAAN(deg)": 264.99694418505925,
        "Satellite Name": "Constellation 1 1166",
        "Satellite Number": 1166,
        "Semi-Major Axis(m)": 7083131.272910544,
        "Time(s)": 54
    },
    {
        "Altitude(m)": 703160.1458682155,
        "Argument of Periapsis(deg)": 0.0032971403434973088,
        "Eccentricity": 0.0,
        "Inclination(deg)": 45.0,
        "Latitude(deg)": 2.315516107830141,
        "Longitude(deg)": 167.10273157199296,
        "Mean Anomaly(deg)": 3.3385627137444183,
        "RAAN(deg)": 264.99688759589367,
        "Satellite Name": "Constellation 1 1166",
        "Satellite Number": 1166,
        "Semi-Major Axis(m)": 7083131.272910544,
        "Time(s)": 55
    },
    {
        "Altitude(m)": 703155.6639508386,
        "Argument of Periapsis(deg)": 0.0033570883497427146,
        "Eccentricity": 0.0,
        "Inclination(deg)": 45.0,
        "Latitude(deg)": 2.358699064590602,
        "Longitude(deg)": 167.14155496031762,
        "Mean Anomaly(deg)": 3.3992638539943556,
        "RAAN(deg)": 264.9968310067281,
        "Satellite Name": "Constellation 1 1166",
        "Satellite Number": 1166,
        "Semi-Major Axis(m)": 7083131.272910544,
        "Time(s)": 56
    }
]